{{Infobox Planet  
| name = 453 Tea
| image = 
| caption = 
| discovery=yes | physical_characteristics = yes | bgcolour=#FFFFC0
| discovery_ref = 
| discoverer = [[奥古斯特·沙卢瓦|奥古斯特·沙卢瓦]]
| discovery_site = [[尼斯|尼斯]]
| discovered =  1900年2月22日
| mp_name = 453
| alt_names = 1900 FA
| named_after = 
| mp_category=[[小行星带|主带小行星]]（[[花神星族|花神星族]]）
| orbit_ref = <ref>[http://ssd.jpl.nasa.gov/sbdb.cgi?sstr=453 453 Tea (1900 FA)]</ref>
| epoch = 2011年8月27日
| semimajor= 2.183952080248663AU
| perihelion=1.947289669046115AU
| aphelion=2.420614491451211[[天文单位|AU]]
| eccentricity =0.1083642875422441				
| period =1178.862313867092[[日|地球日]]<br>3.23[[年|地球年]] 
| inclination=5.555727802417551[[角度|°]]
| asc_node=11.78885424982961°	
| arg_peri=220.1459025596231°
| mean_anomaly=129.079678585004°
| avg_speed=
 | dimensions=20.93千米
 | mass=
 | density=
 | surface_grav=
 | escape_velocity=
 | rotation=6.812小时
 | spectral_type= [[S-型小行星|S]]
 | magnitude=
 | abs_magnitude=10.86
 | albedo=0.1827	
 | single_temperature=
}}
'''小行星453'''（'''453 Tea'''），是由[[法国|法国]][[天文学家|天文学家]][[奥古斯特·沙卢瓦|奥古斯特·沙卢瓦]]于1900年2月22日在法国[[尼斯|尼斯]]发现的[[小行星带|主带]][[小行星|小行星]]。它是[[花神星族|花神星族]]小行星的一员。

小行星453的命名依据不明，可能和凯尔特神话有关。

== 参考资料 ==
{{Reflist}}

{{Minor Planet Number|(452)[[小行星452|小行星452]]|(454)[[小行星454|小行星454]]}}

[[Category:小行星带天体|Category:小行星带天体]]
[[Category:1900年发现的小行星|Category:1900年发现的小行星]]
[[Category:S-型小行星|Category:S-型小行星]]